[
    {
        "Altitude(m)": 710304.4843284033,
        "Argument of Periapsis(deg)": 0.005695060593313534,
        "Eccentricity": 0.0,
        "Inclination(deg)": 45.0,
        "Latitude(deg)": -26.286327390761226,
        "Longitude(deg)": 59.053449857037045,
        "Mean Anomaly(deg)": -141.5060916762596,
        "RAAN(deg)": 309.9946240292709,
        "Satellite Name": "Constellation 1 1377",
        "Satellite Number": 1377,
        "Semi-Major Axis(m)": 7083131.272910544,
        "Time(s)": 95
    },
    {
        "Altitude(m)": 710318.3243808503,
        "Argument of Periapsis(deg)": 0.00575500859955894,
        "Eccentricity": 0.0,
        "Inclination(deg)": 45.0,
        "Latitude(deg)": -26.32383091915141,
        "Longitude(deg)": 59.10252212562122,
        "Mean Anomaly(deg)": -141.44539053600965,
        "RAAN(deg)": 309.9945674401053,
        "Satellite Name": "Constellation 1 1377",
        "Satellite Number": 1377,
        "Semi-Major Axis(m)": 7083131.272910544,
        "Time(s)": 96
    },
    {
        "Altitude(m)": 710332.1651893747,
        "Argument of Periapsis(deg)": 0.005814956605804345,
        "Eccentricity": 0.0,
        "Inclination(deg)": 45.0,
        "Latitude(deg)": -26.36131443235346,
        "Longitude(deg)": 59.151628678636044,
        "Mean Anomaly(deg)": -141.38468939575978,
        "RAAN(deg)": 309.9945108509398,
        "Satellite Name": "Constellation 1 1377",
        "Satellite Number": 1377,
        "Semi-Major Axis(m)": 7083131.272910544,
        "Time(s)": 97
    },
    {
        "Altitude(m)": 710346.0067064703,
        "Argument of Periapsis(deg)": 0.00587490461204975,
        "Eccentricity": 0.0,
        "Inclination(deg)": 45.0,
        "Latitude(deg)": -26.39877788547311,
        "Longitude(deg)": 59.20076940811817,
        "Mean Anomaly(deg)": -141.32398825550985,
        "RAAN(deg)": 309.9944542617742,
        "Satellite Name": "Constellation 1 1377",
        "Satellite Number": 1377,
        "Semi-Major Axis(m)": 7083131.272910544,
        "Time(s)": 98
    },
    {
        "Altitude(m)": 710359.8488846244,
        "Argument of Periapsis(deg)": 0.005934852618295156,
        "Eccentricity": 0.0,
        "Inclination(deg)": 45.0,
        "Latitude(deg)": -26.43622123355033,
        "Longitude(deg)": 59.24994437419403,
        "Mean Anomaly(deg)": -141.26328711526003,
        "RAAN(deg)": 309.9943976726086,
        "Satellite Name": "Constellation 1 1377",
        "Satellite Number": 1377,
        "Semi-Major Axis(m)": 7083131.272910544,
        "Time(s)": 99
    },
    {
        "Altitude(m)": 710373.6916763093,
        "Argument of Periapsis(deg)": 0.005994800624540561,
        "Eccentricity": 0.0,
        "Inclination(deg)": 45.0,
        "Latitude(deg)": -26.473644431560068,
        "Longitude(deg)": 59.29915363698345,
        "Mean Anomaly(deg)": -141.20258597501007,
        "RAAN(deg)": 309.99434108344303,
        "Satellite Name": "Constellation 1 1377",
        "Satellite Number": 1377,
        "Semi-Major Axis(m)": 7083131.272910544,
        "Time(s)": 100
    },
    {
        "Altitude(m)": 710387.5350339805,
        "Argument of Periapsis(deg)": 0.006054748630785968,
        "Eccentricity": 0.0,
        "Inclination(deg)": 45.0,
        "Latitude(deg)": -26.511047434411715,
        "Longitude(deg)": 59.34839725659847,
        "Mean Anomaly(deg)": -141.14188483476013,
        "RAAN(deg)": 309.99428449427745,
        "Satellite Name": "Constellation 1 1377",
        "Satellite Number": 1377,
        "Semi-Major Axis(m)": 7083131.272910544,
        "Time(s)": 101
    },
    {
        "Altitude(m)": 710401.3789100861,
        "Argument of Periapsis(deg)": 0.006114696637031373,
        "Eccentricity": 0.0,
        "Inclination(deg)": 45.0,
        "Latitude(deg)": -26.548430196948853,
        "Longitude(deg)": 59.397675293142846,
        "Mean Anomaly(deg)": -141.0811836945103,
        "RAAN(deg)": 309.9942279051119,
        "Satellite Name": "Constellation 1 1377",
        "Satellite Number": 1377,
        "Semi-Major Axis(m)": 7083131.272910544,
        "Time(s)": 102
    },
    {
        "Altitude(m)": 710415.223257046,
        "Argument of Periapsis(deg)": 0.006174644643276778,
        "Eccentricity": 0.0,
        "Inclination(deg)": 45.0,
        "Latitude(deg)": -26.585792673949797,
        "Longitude(deg)": 59.446987806712535,
        "Mean Anomaly(deg)": -141.02048255426044,
        "RAAN(deg)": 309.99417131594635,
        "Satellite Name": "Constellation 1 1377",
        "Satellite Number": 1377,
        "Semi-Major Axis(m)": 7083131.272910544,
        "Time(s)": 103
    },
    {
        "Altitude(m)": 710429.0680272817,
        "Argument of Periapsis(deg)": 0.006234592649522184,
        "Eccentricity": 0.0,
        "Inclination(deg)": 45.0,
        "Latitude(deg)": -26.6231348201272,
        "Longitude(deg)": 59.49633468929756,
        "Mean Anomaly(deg)": -140.95978141401054,
        "RAAN(deg)": 309.9941147267807,
        "Satellite Name": "Constellation 1 1377",
        "Satellite Number": 1377,
        "Semi-Major Axis(m)": 7083131.272910544,
        "Time(s)": 104
    },
    {
        "Altitude(m)": 710442.9131731909,
        "Argument of Periapsis(deg)": 0.00629454065576759,
        "Eccentricity": 0.0,
        "Inclination(deg)": 45.0,
        "Latitude(deg)": -26.660456590127442,
        "Longitude(deg)": 59.54571633716997,
        "Mean Anomaly(deg)": -140.8990802737606,
        "RAAN(deg)": 309.9940581376152,
        "Satellite Name": "Constellation 1 1377",
        "Satellite Number": 1377,
        "Semi-Major Axis(m)": 7083131.272910544,
        "Time(s)": 105
    },
    {
        "Altitude(m)": 710456.758647164,
        "Argument of Periapsis(deg)": 0.006354488662012995,
        "Eccentricity": 0.0,
        "Inclination(deg)": 45.0,
        "Latitude(deg)": -26.697757938531268,
        "Longitude(deg)": 59.59513264230103,
        "Mean Anomaly(deg)": -140.83837913351073,
        "RAAN(deg)": 309.9940015484496,
        "Satellite Name": "Constellation 1 1377",
        "Satellite Number": 1377,
        "Semi-Major Axis(m)": 7083131.272910544,
        "Time(s)": 106
    },
    {
        "Altitude(m)": 710470.6044015735,
        "Argument of Periapsis(deg)": 0.006414436668258401,
        "Eccentricity": 0.0,
        "Inclination(deg)": 45.0,
        "Latitude(deg)": -26.735038819853717,
        "Longitude(deg)": 59.6445836647497,
        "Mean Anomaly(deg)": -140.7776779932608,
        "RAAN(deg)": 309.9939449592841,
        "Satellite Name": "Constellation 1 1377",
        "Satellite Number": 1377,
        "Semi-Major Axis(m)": 7083131.272910544,
        "Time(s)": 107
    },
    {
        "Altitude(m)": 710484.4503887849,
        "Argument of Periapsis(deg)": 0.0064743846745038075,
        "Eccentricity": 0.0,
        "Inclination(deg)": 45.0,
        "Latitude(deg)": -26.772299188543375,
        "Longitude(deg)": 59.69406946456413,
        "Mean Anomaly(deg)": -140.71697685301092,
        "RAAN(deg)": 309.9938883701185,
        "Satellite Name": "Constellation 1 1377",
        "Satellite Number": 1377,
        "Semi-Major Axis(m)": 7083131.272910544,
        "Time(s)": 108
    },
    {
        "Altitude(m)": 710498.2965611473,
        "Argument of Periapsis(deg)": 0.0065343326807492125,
        "Eccentricity": 0.0,
        "Inclination(deg)": 45.0,
        "Latitude(deg)": -26.809538998982994,
        "Longitude(deg)": 59.74359010178231,
        "Mean Anomaly(deg)": -140.65627571276096,
        "RAAN(deg)": 309.993831780953,
        "Satellite Name": "Constellation 1 1377",
        "Satellite Number": 1377,
        "Semi-Major Axis(m)": 7083131.272910544,
        "Time(s)": 109
    },
    {
        "Altitude(m)": 710512.1428709974,
        "Argument of Periapsis(deg)": 0.0065942806869946176,
        "Eccentricity": 0.0,
        "Inclination(deg)": 45.0,
        "Latitude(deg)": -26.84675820548882,
        "Longitude(deg)": 59.79314563643065,
        "Mean Anomaly(deg)": -140.59557457251108,
        "RAAN(deg)": 309.99377519178734,
        "Satellite Name": "Constellation 1 1377",
        "Satellite Number": 1377,
        "Semi-Major Axis(m)": 7083131.272910544,
        "Time(s)": 110
    },
    {
        "Altitude(m)": 710525.989270659,
        "Argument of Periapsis(deg)": 0.006654228693240024,
        "Eccentricity": 0.0,
        "Inclination(deg)": 45.0,
        "Latitude(deg)": -26.88395676231113,
        "Longitude(deg)": 59.84273596042771,
        "Mean Anomaly(deg)": -140.5348734322612,
        "RAAN(deg)": 309.99371860262175,
        "Satellite Name": "Constellation 1 1377",
        "Satellite Number": 1377,
        "Semi-Major Axis(m)": 7083131.272910544,
        "Time(s)": 111
    },
    {
        "Altitude(m)": 710539.8357124465,
        "Argument of Periapsis(deg)": 0.006714176699485429,
        "Eccentricity": 0.0,
        "Inclination(deg)": 45.0,
        "Latitude(deg)": -26.921134623633346,
        "Longitude(deg)": 59.89236146997065,
        "Mean Anomaly(deg)": -140.47417229201127,
        "RAAN(deg)": 309.99366201345623,
        "Satellite Name": "Constellation 1 1377",
        "Satellite Number": 1377,
        "Semi-Major Axis(m)": 7083131.272910544,
        "Time(s)": 112
    },
    {
        "Altitude(m)": 710553.6821486572,
        "Argument of Periapsis(deg)": 0.006774124705730835,
        "Eccentricity": 0.0,
        "Inclination(deg)": 45.0,
        "Latitude(deg)": -26.958291743572637,
        "Longitude(deg)": 59.94202205695355,
        "Mean Anomaly(deg)": -140.41347115176143,
        "RAAN(deg)": 309.99360542429065,
        "Satellite Name": "Constellation 1 1377",
        "Satellite Number": 1377,
        "Semi-Major Axis(m)": 7083131.272910544,
        "Time(s)": 113
    }
]